[
    {
        "OBJECT_NAME": "FUTABA",
        "OBJECT_ID": "1998-067UC",
        "EPOCH": "2023-01-02T14:16:32.505888",
        "MEAN_MOTION": 15.72417277,
        "ECCENTRICITY": 0.0007822,
        "INCLINATION": 51.6331,
        "RA_OF_ASC_NODE": 58.8797,
        "ARG_OF_PERICENTER": 331.4922,
        "MEAN_ANOMALY": 28.5648,
        "EPHEMERIS_TYPE": 0,
        "CLASSIFICATION_TYPE": "U",
        "NORAD_CAT_ID": 53463,
        "ELEMENT_SET_NO": 999,
        "REV_AT_EPOCH": 2235,
        "BSTAR": 0.00096902,
        "MEAN_MOTION_DOT": 0.00133453,
        "MEAN_MOTION_DDOT": 0
    },
    {
        "OBJECT_NAME": "TUMNANOSAT",
        "OBJECT_ID": "1998-067UD",
        "EPOCH": "2023-01-02T13:30:04.999104",
        "MEAN_MOTION": 15.78573211,
        "ECCENTRICITY": 0.0008271,
        "INCLINATION": 51.6339,
        "RA_OF_ASC_NODE": 57.1494,
        "ARG_OF_PERICENTER": 343.941,
        "MEAN_ANOMALY": 16.1328,
        "EPHEMERIS_TYPE": 0,
        "CLASSIFICATION_TYPE": "U",
        "NORAD_CAT_ID": 53464,
        "ELEMENT_SET_NO": 999,
        "REV_AT_EPOCH": 2237,
        "BSTAR": 0.0012438,
        "MEAN_MOTION_DOT": 0.00227129,
        "MEAN_MOTION_DDOT": 0
    },
    {
        "OBJECT_NAME": "1998-067UL",
        "OBJECT_ID": "1998-067UL",
        "EPOCH": "2023-01-02T10:29:25.614528",
        "MEAN_MOTION": 15.53236993,
        "ECCENTRICITY": 0.0003981,
        "INCLINATION": 51.6419,
        "RA_OF_ASC_NODE": 69.1145,
        "ARG_OF_PERICENTER": 251.1081,
        "MEAN_ANOMALY": 108.9478,
        "EPHEMERIS_TYPE": 0,
        "CLASSIFICATION_TYPE": "U",
        "NORAD_CAT_ID": 54534,
        "ELEMENT_SET_NO": 999,
        "REV_AT_EPOCH": 488,
        "BSTAR": 0.00080266,
        "MEAN_MOTION_DOT": 0.00051308,
        "MEAN_MOTION_DDOT": 0
    },
    {
        "OBJECT_NAME": "1998-067UM",
        "OBJECT_ID": "1998-067UM",
        "EPOCH": "2023-01-02T10:48:21.579264",
        "MEAN_MOTION": 15.53643819,
        "ECCENTRICITY": 0.0003502,
        "INCLINATION": 51.6429,
        "RA_OF_ASC_NODE": 69.0028,
        "ARG_OF_PERICENTER": 246.4252,
        "MEAN_ANOMALY": 206.7982,
        "EPHEMERIS_TYPE": 0,
        "CLASSIFICATION_TYPE": "U",
        "NORAD_CAT_ID": 54535,
        "ELEMENT_SET_NO": 999,
        "REV_AT_EPOCH": 488,
        "BSTAR": 0.00094931,
        "MEAN_MOTION_DOT": 0.00061755,
        "MEAN_MOTION_DDOT": 0
    },
    {
        "OBJECT_NAME": "1998-067UN",
        "OBJECT_ID": "1998-067UN",
        "EPOCH": "2023-01-02T09:26:11.204736",
        "MEAN_MOTION": 15.52981482,
        "ECCENTRICITY": 0.0004396,
        "INCLINATION": 51.644,
        "RA_OF_ASC_NODE": 69.3516,
        "ARG_OF_PERICENTER": 245.1895,
        "MEAN_ANOMALY": 217.3598,
        "EPHEMERIS_TYPE": 0,
        "CLASSIFICATION_TYPE": "U",
        "NORAD_CAT_ID": 54536,
        "ELEMENT_SET_NO": 999,
        "REV_AT_EPOCH": 483,
        "BSTAR": 0.00075838,
        "MEAN_MOTION_DOT": 0.00047985,
        "MEAN_MOTION_DDOT": 0
    },
    {
        "OBJECT_NAME": "1998-067UP",
        "OBJECT_ID": "1998-067UP",
        "EPOCH": "2023-01-02T10:54:25.916832",
        "MEAN_MOTION": 15.53294449,
        "ECCENTRICITY": 0.0004163,
        "INCLINATION": 51.642,
        "RA_OF_ASC_NODE": 69.0111,
        "ARG_OF_PERICENTER": 248.1387,
        "MEAN_ANOMALY": 214.284,
        "EPHEMERIS_TYPE": 0,
        "CLASSIFICATION_TYPE": "U",
        "NORAD_CAT_ID": 54537,
        "ELEMENT_SET_NO": 999,
        "REV_AT_EPOCH": 488,
        "BSTAR": 0.00083644,
        "MEAN_MOTION_DOT": 0.00053616,
        "MEAN_MOTION_DDOT": 0
    }
]