FUTABA                  
1 53463U 98067UC  23002.59482067  .00133453  00000+0  96902-3 0  9996
2 53463  51.6331  58.8797 0007822 331.4922  28.5648 15.72417277 22357
TUMNANOSAT              
1 53464U 98067UD  23002.56255786  .00227129  00000+0  12438-2 0  9995
2 53464  51.6339  57.1494 0008271 343.9410  16.1328 15.78573211 22378
1998-067UL              
1 54534U 98067UL  23002.43710202  .00051308  00000+0  80266-3 0  9998
2 54534  51.6419  69.1145 0003981 251.1081 108.9478 15.53236993  4887
1998-067UM              
1 54535U 98067UM  23002.45024976  .00061755  00000+0  94931-3 0  9998
2 54535  51.6429  69.0028 0003502 246.4252 206.7982 15.53643819  4880
1998-067UN              
1 54536U 98067UN  23002.39318524  .00047985  00000+0  75838-3 0  9991
2 54536  51.6440  69.3516 0004396 245.1895 217.3598 15.52981482  4836
1998-067UP              
1 54537U 98067UP  23002.45446663  .00053616  00000+0  83644-3 0  9997
2 54537  51.6420  69.0111 0004163 248.1387 214.2840 15.53294449  4886
